ONEWEB-0271             
1 48989U 21060Y   24186.92733195 -.00000031  00000+0 -11411-3 0  9993
2 48989  87.9099  10.5608 0002056  80.0742 280.0620 13.16592829145943
ONEWEB-0272             
1 48990U 21060Z   24186.94950476  .00000089  00000+0  20022-3 0  9999
2 48990  87.9100  10.5852 0002028  83.5393 276.5968 13.16595897145895
ONEWEB-0273             
1 48991U 21060AA  24186.89566542  .00000058  00000+0  11923-3 0  9997
2 48991  87.9101  10.5828 0001750  83.4066 276.7264 13.16596523145862
ONEWEB-0274             
1 48992U 21060AB  24186.92100312 -.00000046  00000+0 -15360-3 0  9999
2 48992  87.9107  10.5925 0002388  91.3059 268.8345 13.16596248145906
ONEWEB-0275             
1 48993U 21060AC  24187.51790059  .00000039  00000+0  68307-4 0  9999
2 48993  87.9100  10.4550 0001839  82.9001 277.2338 13.16595642147204
ONEWEB-0276             
1 48994U 21060AD  24186.94315955  .00000000  00000+0 -32573-4 0  9999
2 48994  87.9099  10.5651 0001819  79.6344 280.4992 13.16595224145853
ONEWEB-0277             
1 48995U 21060AE  24187.03183266  .00000128  00000+0  30031-3 0  9995
2 48995  87.9098  10.5856 0002092  75.4149 284.7213 13.16595660147142
ONEWEB-0278             
1 48996U 21060AF  24186.94632203  .00000044  00000+0  80513-4 0  9993
2 48996  87.9099  10.5615 0001444  89.9664 270.1632 13.16581504145974
ONEWEB-0279             
1 48997U 21060AG  24186.95425786  .00000141  00000+0  33441-3 0  9996
2 48997  87.9099  10.5575 0002082  79.0368 281.0998 13.16595579145906
ONEWEB-0280             
1 48998U 21060AH  24186.89250729  .00000087  00000+0  19522-3 0  9996
2 48998  87.9101  10.5714 0001645  82.8623 277.2695 13.16595950145832
ONEWEB-0281             
1 48999U 21060AJ  24186.89884358  .00000055  00000+0  10965-3 0  9995
2 48999  87.9101  10.5719 0001989  93.3396 266.7962 13.16595975145908
ONEWEB-0282             
1 49000U 21060AK  24187.08091852 -.00000042  00000+0 -14225-3 0  9991
2 49000  87.9099  10.5523 0001818  77.9175 282.2159 13.16595934147228
ONEWEB-0283             
1 49001U 21060AL  24187.52582002  .00000019  00000+0  17290-4 0  9991
2 49001  87.9099  10.4702 0002020  82.9412 277.1948 13.16595914147297
ONEWEB-0284             
1 49002U 21060AM  24187.51948778  .00000028  00000+0  39008-4 0  9998
2 49002  87.9093  10.4540 0001696  82.2445 277.8878 13.16595425147262
ONEWEB-0285             
1 49075U 21075A   24187.08140486  .00000296  00000+0  78622-3 0  9997
2 49075  87.8952 132.4656 0002025  78.9952 281.1405 13.12440423142789
ONEWEB-0286             
1 49076U 21075B   24187.12911446  .00000068  00000+0  15391-3 0  9996
2 49076  87.8947 132.4582 0001925  89.5260 270.6089 13.12446329142142
ONEWEB-0287             
1 49077U 21075C   24186.88582003  .00000028  00000+0  37822-4 0  9992
2 49077  87.9178 147.6766 0001760  84.0905 276.0427 13.17648373139820
ONEWEB-0288             
1 49078U 21075D   24187.34403077 -.00000284  00000+0 -82405-3 0  9990
2 49078  87.8948 132.4193 0001870  80.6347 279.4993 13.12445791142806
ONEWEB-0289             
1 49079U 21075E   24187.14270036  .00000007  00000+0 -14167-4 0  9999
2 49079  87.9181 147.6534 0002127  80.7515 279.3857 13.17648417141406
ONEWEB-0290             
1 49080U 21075F   24186.89712007  .00000053  00000+0  10446-3 0  9996
2 49080  87.9179 147.6629 0001632  77.0334 283.0979 13.17649887139819
ONEWEB-0291             
1 49081U 21075G   24186.88097533  .00000045  00000+0  82317-4 0  9994
2 49081  87.9173 147.6861 0001841  84.2724 275.8617 13.17648742139803
ONEWEB-0293             
1 49082U 21075H   24186.90681498  .00000014  00000+0  17937-5 0  9990
2 49082  87.9178 147.6957 0001789  79.1211 281.0122 13.17649142139838
ONEWEB-0294             
1 49083U 21075J   24186.89309647 -.00000124  00000+0 -37896-3 0  9990
2 49083  87.8948 132.5082 0001394  70.9222 289.2057 13.12446308141146
ONEWEB-0295             
1 49084U 21075K   24187.13623390  .00000031  00000+0  45926-4 0  9992
2 49084  87.9180 147.6280 0001709  92.1510 267.9817 13.17647655140788
ONEWEB-0296             
1 49085U 21075L   24187.40730458 -.00000273  00000+0 -79314-3 0  9994
2 49085  87.8949 132.4073 0001317  90.3279 269.8000 13.12442859142208
ONEWEB-0297             
1 49086U 21075M   24187.20941496  .00000203  00000+0  52942-3 0  9998
2 49086  87.8957 132.4544 0002082  83.0903 277.0462 13.12444963142788
ONEWEB-0298             
1 49087U 21075N   24187.13947118  .00000039  00000+0  67470-4 0  9998
2 49087  87.9180 147.6459 0002085  89.1417 270.9953 13.17647787140847
ONEWEB-0299             
1 49088U 21075P   24187.44483948  .00000009  00000+0 -10554-4 0  9998
2 49088  87.9175 147.5540 0001987  91.2199 268.9160 13.17650567140840
ONEWEB-0300             
1 49089U 21075Q   24186.89635158  .00000038  00000+0  69177-4 0  9995
2 49089  87.8948 132.5050 0002447  81.3040 278.8366 13.12443438142768
ONEWEB-0301             
1 49090U 21075R   24186.88012792 -.00000422  00000+0 -12089-2 0  9996
2 49090  87.8948 132.5113 0002359  80.5703 279.5693 13.12445306141136
ONEWEB-0302             
1 49091U 21075S   24187.32456595 -.00000084  00000+0 -26942-3 0  9998
2 49091  87.8950 132.4219 0001825  80.6629 279.4706 13.12440319142179
ONEWEB-0304             
1 49092U 21075T   24186.96336917 -.00000023  00000+0 -92628-4 0  9991
2 49092  87.9179 147.6658 0001791  86.7527 273.3810 13.17648706139782
ONEWEB-0305             
1 49093U 21075U   24187.41089415  .00000091  00000+0  20166-3 0  9991
2 49093  87.9175 147.5633 0001917  96.6549 263.4801 13.17652007140843
ONEWEB-0308             
1 49094U 21075V   24187.08936997  .00000050  00000+0  10473-3 0  9996
2 49094  87.8948 132.4678 0002115  80.1060 280.0307 13.12440586142154
ONEWEB-0309             
1 49095U 21075W   24187.18795023  .00000102  00000+0  23034-3 0  9996
2 49095  87.9179 147.6128 0001580  74.0135 286.1171 13.17648741140804
ONEWEB-0310             
1 49096U 21075X   24187.40893013 -.00000304  00000+0 -88025-3 0  9997
2 49096  87.8958 132.4136 0001931  77.0262 283.1082 13.12443327142824
ONEWEB-0311             
1 49097U 21075Y   24186.96659515  .00000024  00000+0  29328-4 0  9994
2 49097  87.9181 147.6577 0001974  96.7405 263.3951 13.17650564139835
ONEWEB-0312             
1 49098U 21075Z   24187.13300396  .00000002  00000+0 -27065-4 0  9998
2 49098  87.9179 147.6566 0001582  90.4079 269.7233 13.17648131140814
ONEWEB-0313             
1 49099U 21075AA  24187.41412175 -.00005168  00000+0 -13346-1 0  9992
2 49099  87.9177 147.6032 0001721  94.4828 265.6500 13.17673529140868
ONEWEB-0314             
1 49100U 21075AB  24187.40766150  .00000143  00000+0  33476-3 0  9993
2 49100  87.9174 147.5616 0001698  91.7313 268.4013 13.17651282140825
ONEWEB-0315             
1 49101U 21075AC  24187.38297517  .00000503  00000+0  13641-2 0  9998
2 49101  87.8947 132.4029 0002164  80.6483 279.4890 13.12441529142809
ONEWEB-0316             
1 49102U 21075AD  24187.21030293  .00000072  00000+0  14899-3 0  9995
2 49102  87.9155 117.2005 0002032  85.3258 274.8106 13.18687395144386
ONEWEB-0317             
1 49103U 21075AE  24187.14777661  .00000534  00000+0  14493-2 0  9997
2 49103  87.8950 132.4593 0002131  67.6101 292.5254 13.12442337142782
ONEWEB-0318             
1 49104U 21075AF  24187.20713752  .00000061  00000+0  12280-3 0  9994
2 49104  87.9152 117.1943 0002036  88.2840 271.8525 13.18687220144332
ONEWEB-0319             
1 49105U 21075AG  24187.42382201 -.00000905  00000+0 -23650-2 0  9991
2 49105  87.9180 147.5928 0002000  98.5215 261.6143 13.17655918140860
ONEWEB-0323             
1 49106U 21075AH  24187.21427891  .00000360  00000+0  96519-3 0  9992
2 49106  87.8948 132.4331 0001976  86.0018 274.1336 13.12442689142169
ONEWEB-0329             
1 49107U 21075AJ  24187.43190944  .00000094  00000+0  20961-3 0  9995
2 49107  87.9180 147.5949 0001884  87.7511 272.3836 13.17648931140846
ONEWEB-0330             
1 49108U 21075AK  24187.43350080  .00003866  00000+0  99191-2 0  9995
2 49108  87.9175 147.5933 0001524  63.7237 296.4051 13.17653520140884
ONEWEB-0292             
1 49186U 21083A   24186.75141396  .00000243  00000+0  62951-3 0  9993
2 49186  87.8934 102.0642 0002011  80.5920 279.5436 13.13473123137401
ONEWEB-0303             
1 49187U 21083B   24187.50748691  .00000074  00000+0  15445-3 0  9997
2 49187  87.9153 117.1345 0002080  86.1137 274.0232 13.18687482137461
ONEWEB-0306             
1 49188U 21083C   24187.19448611  .00000053  00000+0  10142-3 0  9998
2 49188  87.9153 117.1839 0002008  74.4053 285.7301 13.18685104137462
ONEWEB-0307             
1 49189U 21083D   24187.20293682  .00000258  00000+0  67080-3 0  9997
2 49189  87.8935 101.9743 0001712  68.2191 291.9120 13.13469968138754
ONEWEB-0320             
1 49190U 21083E   24187.20082002  .00000059  00000+0  11654-3 0  9996
2 49190  87.9154 117.2071 0001985  78.8360 281.2995 13.18686953137426
ONEWEB-0321             
1 49191U 21083F   24186.93557454  .00000062  00000+0  11978-3 0  9997
2 49191  87.9199  56.1446 0001908  73.6548 286.4795 13.20774289142816
ONEWEB-0322             
1 49192U 21083G   24187.50369061  .00000044  00000+0  85889-4 0  9990
2 49192  87.8935 101.9034 0002002  63.3730 296.7604 13.13471075138784
ONEWEB-0324             
1 49193U 21083H   24187.33834137  .00000049  00000+0  91471-4 0  9992
2 49193  87.9152 117.1615 0001748  81.6235 278.5095 13.18688356137463
ONEWEB-0325             
1 49194U 21083J   24187.19133901  .00000061  00000+0  12161-3 0  9990
2 49194  87.9154 117.2049 0002104  78.4790 281.6578 13.18685378137456
ONEWEB-0326             
1 49195U 21083K   24187.20556393  .00000048  00000+0  87813-4 0  9999
2 49195  87.9152 117.2003 0001977  95.6047 264.5311 13.18688038137448
ONEWEB-0327             
1 49196U 21083L   24187.33122605  .00000089  00000+0  19378-3 0  9994
2 49196  87.9152 117.1876 0002124  90.3582 269.7794 13.18682361137486
